OBJECT_NAME,OBJECT_ID,EPOCH,MEAN_MOTION,ECCENTRICITY,INCLINATION,RA_OF_ASC_NODE,ARG_OF_PERICENTER,MEAN_ANOMALY,EPHEMERIS_TYPE,CLASSIFICATION_TYPE,NORAD_CAT_ID,ELEMENT_SET_NO,REV_AT_EPOCH,BSTAR,MEAN_MOTION_DOT,MEAN_MOTION_DDOT
ONEWEB-0400,2021-132M,2026-07-07T20:59:40.491744,13.18689684,.0002242,87.9194,331.3313,96.3999,263.7389,0,U,50480,999,22433,-.22764E-2,-.885E-5,0
ONEWEB-0401,2021-132N,2026-07-07T22:05:15.317088,13.18685944,.0001689,87.9190,331.3188,102.6268,257.5053,0,U,50481,999,22434,-.7832E-4,-.18E-6,0
ONEWEB-0402,2021-132P,2026-07-07T21:11:49.858944,13.18687103,.0001439,87.9186,331.3149,102.9323,257.1970,0,U,50482,999,22436,-.11269E-4,.8E-7,0
ONEWEB-0403,2021-132Q,2026-07-07T21:48:15.537024,13.18685982,.0001869,87.9191,331.3341,91.8857,268.2489,0,U,50483,999,22432,.58593E-4,.36E-6,0
ONEWEB-0404,2021-132R,2026-07-07T22:21:32.063040,13.11415432,.0001955,87.8883,16.9368,79.1657,280.9691,0,U,50484,999,21841,-.14091E-2,-.487E-5,0
ONEWEB-0405,2021-132S,2026-07-07T22:07:39.829728,13.18684408,.000234,87.9194,331.3165,99.2811,260.8586,0,U,50485,999,22472,-.62105E-4,-.12E-6,0
ONEWEB-0406,2021-132T,2026-07-07T21:55:32.239776,13.18686127,.0001944,87.9187,331.3336,80.9171,279.2181,0,U,50486,999,22435,-.35471E-4,-.1E-7,0
ONEWEB-0407,2021-132U,2026-07-07T21:45:49.080384,13.18687749,.0001877,87.9192,331.3277,103.6943,256.4399,0,U,50487,999,22429,.46221E-5,.15E-6,0
ONEWEB-0409,2021-132V,2026-07-07T22:19:06.080736,13.11415446,.0002042,87.8885,16.9258,82.2957,277.8402,0,U,50488,999,21830,-.1296E-2,-.447E-5,0
ONEWEB-0412,2021-132W,2026-07-07T21:28:49.791936,13.18686091,.0001569,87.9188,331.3381,100.5181,259.6128,0,U,50489,999,22438,.10231E-3,.53E-6,0
ONEWEB-0413,2021-132X,2026-07-07T21:36:07.070976,13.18687189,.0001691,87.9180,331.3339,104.6655,255.4664,0,U,50490,999,22432,.64773E-4,.38E-6,0
ONEWEB-0414,2021-132Y,2026-07-07T23:03:31.516416,13.18685959,.0001688,87.9189,331.3062,96.8196,263.3129,0,U,50491,999,22436,.20811E-3,.95E-6,0
ONEWEB-0417,2021-132Z,2026-07-07T21:26:23.944416,13.18686657,.0001944,87.9182,331.3374,89.5643,270.5712,0,U,50492,999,22433,.13017E-3,.64E-6,0
ONEWEB-0418,2021-132AA,2026-07-07T21:40:45.848352,13.18685550,.000197,87.9185,331.3361,88.8455,271.2903,0,U,50493,999,22439,.12942E-3,.64E-6,0
ONEWEB-0419,2021-132AB,2026-07-07T22:08:00.156192,13.18666131,.0002134,87.9191,331.3326,93.8585,266.2791,0,U,50494,999,22431,.25926E-4,.23E-6,0
ONEWEB-0420,2021-132AC,2026-07-07T23:05:56.073120,13.18687202,.0001902,87.9180,331.3258,103.0518,257.0826,0,U,50495,999,22431,-.63573E-4,-.12E-6,0
ONEWEB-0421,2021-132AD,2026-07-07T22:56:15.486720,13.18681314,.000164,87.9191,331.3282,69.9954,290.1355,0,U,50496,999,22435,-.10824E-4,.9E-7,0
ONEWEB-0424,2021-132AE,2026-07-07T22:00:23.927904,13.18686509,.0002244,87.9190,331.3318,95.2555,264.8834,0,U,50497,999,22437,-.14239E-4,.7E-7,0
ONEWEB-0426,2021-132AF,2026-07-07T22:50:10.329216,13.18685815,.0001583,87.9189,331.3162,74.9674,285.1633,0,U,50498,999,22432,.14177E-4,.18E-6,0
ONEWEB-0427,2021-132AG,2026-07-07T21:57:58.322304,13.18686313,.0001885,87.9191,331.3124,90.5243,269.6105,0,U,50499,999,22434,.12048E-3,.6E-6,0
ONEWEB-0429,2021-132AH,2026-07-07T21:38:32.013888,13.18686056,.0001835,87.9183,331.3384,100.7839,259.3500,0,U,50500,999,22431,.12067E-3,.6E-6,0
ONEWEB-0430,2021-132AJ,2026-07-07T19:32:16.848096,13.18688166,.0001988,87.9184,331.3538,104.5026,255.6327,0,U,50501,999,22434,.13915E-4,.18E-6,0
ONEWEB-0432,2021-132AK,2026-07-07T22:46:20.153568,13.18685994,.0002313,87.9190,331.3131,100.9185,259.2207,0,U,50502,999,22431,.75574E-4,.43E-6,0
ONEWEB-0440,2021-132AL,2026-07-07T21:50:40.672608,13.18686128,.0001598,87.9192,331.3322,104.1116,256.0193,0,U,50503,999,22430,.59381E-4,.36E-6,0
ONEWEB-0450,2021-132AM,2026-07-07T21:41:10.116384,13.18686267,.0001911,87.9182,331.3367,102.3519,257.7827,0,U,50504,999,22433,.98694E-4,.52E-6,0
ONEWEB-0410,2022-012A,2026-07-07T22:44:54.398976,13.17649772,.0002199,87.9151,1.7285,54.8916,305.2421,0,U,51622,999,21643,.15095E-4,.19E-6,0
ONEWEB-0411,2022-012B,2026-07-08T00:16:48.928224,13.10375775,.0002197,87.8825,32.1184,98.7157,261.4219,0,U,51623,999,21201,.19498E-2,.693E-5,0
ONEWEB-0415,2022-012C,2026-07-08T00:11:55.122432,13.10377003,.0002144,87.8821,32.1171,88.2627,271.8746,0,U,51624,999,21201,.18494E-2,.658E-5,0
ONEWEB-0416,2022-012D,2026-07-08T00:29:01.866336,13.10372915,.0002246,87.8815,32.1318,87.1055,273.0330,0,U,51625,999,21205,.20066E-2,.713E-5,0
ONEWEB-0422,2022-012E,2026-07-07T22:59:29.001984,13.17650706,.0001654,87.9147,1.7270,111.4906,248.6402,0,U,51626,999,21654,.12543E-3,.62E-6,0
ONEWEB-0423,2022-012F,2026-07-07T22:49:45.321600,13.17648337,.000181,87.9140,1.7323,89.5618,270.5721,0,U,51627,999,21643,.59874E-4,.36E-6,0
