ONEWEB-0400             
1 50480U 21132M   26188.87477421 -.00000885  00000+0 -22764-2 0  9996
2 50480  87.9194 331.3313 0002242  96.3999 263.7389 13.18689684224335
ONEWEB-0401             
1 50481U 21132N   26188.92031617 -.00000018  00000+0 -78320-4 0  9995
2 50481  87.9190 331.3188 0001689 102.6268 257.5053 13.18685944224341
ONEWEB-0402             
1 50482U 21132P   26188.88321596  .00000008  00000+0 -11269-4 0  9996
2 50482  87.9186 331.3149 0001439 102.9323 257.1970 13.18687103224367
ONEWEB-0403             
1 50483U 21132Q   26188.90851316  .00000036  00000+0  58593-4 0  9999
2 50483  87.9191 331.3341 0001869  91.8857 268.2489 13.18685982224320
ONEWEB-0404             
1 50484U 21132R   26188.93162110 -.00000487  00000+0 -14091-2 0  9995
2 50484  87.8883  16.9368 0001955  79.1657 280.9691 13.11415432218419
ONEWEB-0405             
1 50485U 21132S   26188.92198877 -.00000012  00000+0 -62105-4 0  9999
2 50485  87.9194 331.3165 0002340  99.2811 260.8586 13.18684408224728
ONEWEB-0406             
1 50486U 21132T   26188.91356759 -.00000001  00000+0 -35471-4 0  9998
2 50486  87.9187 331.3336 0001944  80.9171 279.2181 13.18686127224350
ONEWEB-0407             
1 50487U 21132U   26188.90681806  .00000015  00000+0  46221-5 0  9991
2 50487  87.9192 331.3277 0001877 103.6943 256.4399 13.18687749224298
ONEWEB-0409             
1 50488U 21132V   26188.92993149 -.00000447  00000+0 -12960-2 0  9991
2 50488  87.8885  16.9258 0002042  82.2957 277.8402 13.11415446218307
ONEWEB-0412             
1 50489U 21132W   26188.89502074  .00000053  00000+0  10231-3 0  9992
2 50489  87.9188 331.3381 0001569 100.5181 259.6128 13.18686091224383
ONEWEB-0413             
1 50490U 21132X   26188.90008184  .00000038  00000+0  64773-4 0  9993
2 50490  87.9180 331.3339 0001691 104.6655 255.4664 13.18687189224329
ONEWEB-0414             
1 50491U 21132Y   26188.96078144  .00000095  00000+0  20811-3 0  9990
2 50491  87.9189 331.3062 0001688  96.8196 263.3129 13.18685959224361
ONEWEB-0417             
1 50492U 21132Z   26188.89333269  .00000064  00000+0  13017-3 0  9991
2 50492  87.9182 331.3374 0001944  89.5643 270.5712 13.18686657224333
ONEWEB-0418             
1 50493U 21132AA  26188.90330843  .00000064  00000+0  12942-3 0  9995
2 50493  87.9185 331.3361 0001970  88.8455 271.2903 13.18685550224392
ONEWEB-0419             
1 50494U 21132AB  26188.92222403  .00000023  00000+0  25926-4 0  9992
2 50494  87.9191 331.3326 0002134  93.8585 266.2791 13.18666131224319
ONEWEB-0420             
1 50495U 21132AC  26188.96245455 -.00000012  00000+0 -63573-4 0  9999
2 50495  87.9180 331.3258 0001902 103.0518 257.0826 13.18687202224313
ONEWEB-0421             
1 50496U 21132AD  26188.95573480  .00000009  00000+0 -10824-4 0  9997
2 50496  87.9191 331.3282 0001640  69.9954 290.1355 13.18681314224353
ONEWEB-0424             
1 50497U 21132AE  26188.91694361  .00000007  00000+0 -14239-4 0  9998
2 50497  87.9190 331.3318 0002244  95.2555 264.8834 13.18686509224376
ONEWEB-0426             
1 50498U 21132AF  26188.95150844  .00000018  00000+0  14177-4 0  9998
2 50498  87.9189 331.3162 0001583  74.9674 285.1633 13.18685815224320
ONEWEB-0427             
1 50499U 21132AG  26188.91525836  .00000060  00000+0  12048-3 0  9993
2 50499  87.9191 331.3124 0001885  90.5243 269.6105 13.18686313224340
ONEWEB-0429             
1 50500U 21132AH  26188.90175942  .00000060  00000+0  12067-3 0  9995
2 50500  87.9183 331.3384 0001835 100.7839 259.3500 13.18686056224318
ONEWEB-0430             
1 50501U 21132AJ  26188.81408389  .00000018  00000+0  13915-4 0  9997
2 50501  87.9184 331.3538 0001988 104.5026 255.6327 13.18688166224343
ONEWEB-0432             
1 50502U 21132AK  26188.94884437  .00000043  00000+0  75574-4 0  9991
2 50502  87.9190 331.3131 0002313 100.9185 259.2207 13.18685994224319
ONEWEB-0440             
1 50503U 21132AL  26188.91019297  .00000036  00000+0  59381-4 0  9993
2 50503  87.9192 331.3322 0001598 104.1116 256.0193 13.18686128224306
ONEWEB-0450             
1 50504U 21132AM  26188.90358931  .00000052  00000+0  98694-4 0  9992
2 50504  87.9182 331.3367 0001911 102.3519 257.7827 13.18686267224330
ONEWEB-0410             
1 51622U 22012A   26188.94785184  .00000019  00000+0  15095-4 0  9997
2 51622  87.9151   1.7285 0002199  54.8916 305.2421 13.17649772216436
ONEWEB-0411             
1 51623U 22012B   26189.01167741  .00000693  00000+0  19498-2 0  9997
2 51623  87.8825  32.1184 0002197  98.7157 261.4219 13.10375775212012
ONEWEB-0415             
1 51624U 22012C   26189.00827688  .00000658  00000+0  18494-2 0  9996
2 51624  87.8821  32.1171 0002144  88.2627 271.8746 13.10377003212019
ONEWEB-0416             
1 51625U 22012D   26189.02016049  .00000713  00000+0  20066-2 0  9990
2 51625  87.8815  32.1318 0002246  87.1055 273.0330 13.10372915212056
ONEWEB-0422             
1 51626U 22012E   26188.95797456  .00000062  00000+0  12543-3 0  9999
2 51626  87.9147   1.7270 0001654 111.4906 248.6402 13.17650706216543
ONEWEB-0423             
1 51627U 22012F   26188.95121900  .00000036  00000+0  59874-4 0  9995
2 51627  87.9140   1.7323 0001810  89.5618 270.5721 13.17648337216438
